start=new Date('2022-06-04T00:00:00.000Z').valueOf();
sats=[{"REV_AT_EPOCH":"6074","MEAN_ELEMENT_THEORY":"SGP4","TLE_LINE1":"1 48318U 21036AU  22154.42065868  .00000622  00000-0  60645-4 0  9994","FILE":"3479192","INCLINATION":"53.0553","MEAN_ANOMALY":"311.1276","COUNTRY_CODE":"US","PERIOD":"95.592","ELEMENT_SET_NO":"999","ECCENTRICITY":"0.00018620","EPHEMERIS_TYPE":"0","OBJECT_NAME":"STARLINK-2509","DECAY_DATE":null,"SITE":"AFETR","BSTAR":"0.00006064500000","APOAPSIS":"548.519","EPOCH":"2022-06-03T10:05:44.909952","ARG_OF_PERICENTER":"48.9874","TIME_SYSTEM":"UTC","CENTER_NAME":"EARTH","OBJECT_TYPE":"PAYLOAD","GP_ID":"205262369","CLASSIFICATION_TYPE":"U","NORAD_CAT_ID":"48318","RCS_SIZE":"LARGE","LAUNCH_DATE":"2021-04-29","REF_FRAME":"TEME","RA_OF_ASC_NODE":"155.4513","MEAN_MOTION_DDOT":"0.0000000000000","TLE_LINE2":"2 48318  53.0553 155.4513 0001862  48.9874 311.1276 15.06394826 60740","PERIAPSIS":"545.940","OBJECT_ID":"2021-036AU","SEMIMAJOR_AXIS":"6925.364","MEAN_MOTION_DOT":"0.00000622","MEAN_MOTION":"15.06394826"},{"INCLINATION":"53.0560","MEAN_ANOMALY":"301.9251","COUNTRY_CODE":"US","PERIOD":"95.564","ELEMENT_SET_NO":"999","REV_AT_EPOCH":"6072","MEAN_ELEMENT_THEORY":"SGP4","TLE_LINE1":"1 48319U 21036AV  22154.28350166  .00037558  00000-0  24974-2 0  9998","FILE":"3479192","CENTER_NAME":"EARTH","OBJECT_TYPE":"PAYLOAD","GP_ID":"205262619","CLASSIFICATION_TYPE":"U","ECCENTRICITY":"0.00018410","EPHEMERIS_TYPE":"0","OBJECT_NAME":"STARLINK-2512","APOAPSIS":"547.153","DECAY_DATE":null,"SITE":"AFETR","BSTAR":"0.00249740000000","ARG_OF_PERICENTER":"58.1918","EPOCH":"2022-06-03T06:48:14.543424","TIME_SYSTEM":"UTC","RCS_SIZE":"LARGE","LAUNCH_DATE":"2021-04-29","REF_FRAME":"TEME","NORAD_CAT_ID":"48319","SEMIMAJOR_AXIS":"6924.013","MEAN_MOTION":"15.06835751","MEAN_MOTION_DOT":"0.00037558","RA_OF_ASC_NODE":"156.0515","TLE_LINE2":"2 48319  53.0560 156.0515 0001841  58.1918 301.9251 15.06835751 60722","MEAN_MOTION_DDOT":"0.0000000000000","PERIAPSIS":"544.604","OBJECT_ID":"2021-036AV"},{"CENTER_NAME":"EARTH","CLASSIFICATION_TYPE":"U","OBJECT_TYPE":"PAYLOAD","GP_ID":"205269185","ARG_OF_PERICENTER":"56.7808","EPOCH":"2022-06-03T11:30:39.305376","TIME_SYSTEM":"UTC","OBJECT_NAME":"STARLINK-2029","ECCENTRICITY":"0.00017760","EPHEMERIS_TYPE":"0","DECAY_DATE":null,"SITE":"AFETR","BSTAR":"-0.00007649100000","APOAPSIS":"548.473","ELEMENT_SET_NO":"999","PERIOD":"95.593","MEAN_ANOMALY":"303.3351","INCLINATION":"53.0544","COUNTRY_CODE":"US","MEAN_ELEMENT_THEORY":"SGP4","FILE":"3479321","TLE_LINE1":"1 48320U 21036AW  22154.47962159 -.00001420  00000-0 -76491-4 0  9996","REV_AT_EPOCH":"6139","MEAN_MOTION":"15.06390336","SEMIMAJOR_AXIS":"6925.378","MEAN_MOTION_DOT":"-0.00001420","PERIAPSIS":"546.013","OBJECT_ID":"2021-036AW","RA_OF_ASC_NODE":"155.1845","MEAN_MOTION_DDOT":"0.0000000000000","TLE_LINE2":"2 48320  53.0544 155.1845 0001776  56.7808 303.3351 15.06390336 61397","REF_FRAME":"TEME","RCS_SIZE":"LARGE","LAUNCH_DATE":"2021-04-29","NORAD_CAT_ID":"48320"},{"CENTER_NAME":"EARTH","OBJECT_TYPE":"PAYLOAD","GP_ID":"205264112","CLASSIFICATION_TYPE":"U","ARG_OF_PERICENTER":"46.3590","EPOCH":"2022-06-03T06:38:43.861920","TIME_SYSTEM":"UTC","EPHEMERIS_TYPE":"0","ECCENTRICITY":"0.00016740","OBJECT_NAME":"STARLINK-2457","APOAPSIS":"548.407","DECAY_DATE":null,"SITE":"AFETR","BSTAR":"-0.00008314700000","PERIOD":"95.593","ELEMENT_SET_NO":"999","INCLINATION":"53.0549","MEAN_ANOMALY":"313.7537","COUNTRY_CODE":"US","MEAN_ELEMENT_THEORY":"SGP4","FILE":"3479192","TLE_LINE1":"1 48321U 21036AX  22154.27689655 -.00001519  00000-0 -83147-4 0  9997","REV_AT_EPOCH":"6072","MEAN_MOTION":"15.06388991","SEMIMAJOR_AXIS":"6925.382","MEAN_MOTION_DOT":"-0.00001519","PERIAPSIS":"546.088","OBJECT_ID":"2021-036AX","RA_OF_ASC_NODE":"156.0848","MEAN_MOTION_DDOT":"0.0000000000000","TLE_LINE2":"2 48321  53.0549 156.0848 0001674  46.3590 313.7537 15.06388991 60727","REF_FRAME":"TEME","RCS_SIZE":"LARGE","LAUNCH_DATE":"2021-04-29","NORAD_CAT_ID":"48321"},{"NORAD_CAT_ID":"48322","RCS_SIZE":"MEDIUM","LAUNCH_DATE":"2021-04-29","REF_FRAME":"TEME","RA_OF_ASC_NODE":"156.0983","MEAN_MOTION_DDOT":"0.0000000000000","TLE_LINE2":"2 48322  53.0549 156.0983 0001819  55.1060 305.0100 15.06396225 60728","PERIAPSIS":"545.965","OBJECT_ID":"2021-036AY","MEAN_MOTION":"15.06396225","SEMIMAJOR_AXIS":"6925.360","MEAN_MOTION_DOT":"0.00000634","REV_AT_EPOCH":"6072","MEAN_ELEMENT_THEORY":"SGP4","TLE_LINE1":"1 48322U 21036AY  22154.27321702  .00000634  00000-0  61487-4 0  9992","FILE":"3479192","INCLINATION":"53.0549","MEAN_ANOMALY":"305.0100","COUNTRY_CODE":"US","PERIOD":"95.592","ELEMENT_SET_NO":"999","EPHEMERIS_TYPE":"0","ECCENTRICITY":"0.00018190","OBJECT_NAME":"STARLINK-2477","SITE":"AFETR","DECAY_DATE":null,"BSTAR":"0.00006148700000","APOAPSIS":"548.485","EPOCH":"2022-06-03T06:33:25.950528","ARG_OF_PERICENTER":"55.1060","TIME_SYSTEM":"UTC","CENTER_NAME":"EARTH","OBJECT_TYPE":"PAYLOAD","GP_ID":"205262870","CLASSIFICATION_TYPE":"U"},{"REV_AT_EPOCH":"6072","TLE_LINE1":"1 48323U 21036AZ  22154.26951591  .00000661  00000-0  63321-4 0  9996","FILE":"3479192","MEAN_ELEMENT_THEORY":"SGP4","COUNTRY_CODE":"US","INCLINATION":"53.0537","MEAN_ANOMALY":"313.0726","PERIOD":"95.592","ELEMENT_SET_NO":"999","SITE":"AFETR","DECAY_DATE":null,"BSTAR":"0.00006332100000","APOAPSIS":"548.748","ECCENTRICITY":"0.00022150","EPHEMERIS_TYPE":"0","OBJECT_NAME":"STARLINK-2515","TIME_SYSTEM":"UTC","ARG_OF_PERICENTER":"47.0448","EPOCH":"2022-06-03T06:28:06.174624","OBJECT_TYPE":"PAYLOAD","GP_ID":"205263120","CLASSIFICATION_TYPE":"U","CENTER_NAME":"EARTH","NORAD_CAT_ID":"48323","LAUNCH_DATE":"2021-04-29","RCS_SIZE":"LARGE","REF_FRAME":"TEME","MEAN_MOTION_DDOT":"0.0000000000000","TLE_LINE2":"2 48323  53.0537 156.1198 0002215  47.0448 313.0726 15.06399789 60727","RA_OF_ASC_NODE":"156.1198","OBJECT_ID":"2021-036AZ","PERIAPSIS":"545.680","SEMIMAJOR_AXIS":"6925.349","MEAN_MOTION":"15.06399789","MEAN_MOTION_DOT":"0.00000661"},{"NORAD_CAT_ID":"48324","REF_FRAME":"TEME","LAUNCH_DATE":"2021-04-29","RCS_SIZE":"LARGE","OBJECT_ID":"2021-036BA","PERIAPSIS":"545.033","TLE_LINE2":"2 48324  53.0527 154.6419 0001624 273.3013  86.7790 15.06744711 60769","MEAN_MOTION_DDOT":"0.0000000000000","RA_OF_ASC_NODE":"154.6419","SEMIMAJOR_AXIS":"6924.292","MEAN_MOTION_DOT":"-0.00015605","MEAN_MOTION":"15.06744711","FILE":"3479630","TLE_LINE1":"1 48324U 21036BA  22154.59682399 -.00015605  00000-0 -10214-2 0  9997","MEAN_ELEMENT_THEORY":"SGP4","REV_AT_EPOCH":"6076","PERIOD":"95.570","ELEMENT_SET_NO":"999","COUNTRY_CODE":"US","INCLINATION":"53.0527","MEAN_ANOMALY":"86.7790","TIME_SYSTEM":"UTC","ARG_OF_PERICENTER":"273.3013","EPOCH":"2022-06-03T14:19:25.592736","SITE":"AFETR","DECAY_DATE":null,"BSTAR":"-0.00102140000000","APOAPSIS":"547.282","EPHEMERIS_TYPE":"0","ECCENTRICITY":"0.00016240","OBJECT_NAME":"STARLINK-2527","GP_ID":"205296922","OBJECT_TYPE":"PAYLOAD","CLASSIFICATION_TYPE":"U","CENTER_NAME":"EARTH"},{"SEMIMAJOR_AXIS":"6925.323","MEAN_MOTION_DOT":"0.00000752","MEAN_MOTION":"15.06408405","RA_OF_ASC_NODE":"155.5676","TLE_LINE2":"2 48325  53.0535 155.5676 0001792  47.4060 312.7080 15.06408405 61337","MEAN_MOTION_DDOT":"0.0000000000000","PERIAPSIS":"545.947","OBJECT_ID":"2021-036BB","RCS_SIZE":"LARGE","LAUNCH_DATE":"2021-04-29","REF_FRAME":"TEME","NORAD_CAT_ID":"48325","CENTER_NAME":"EARTH","GP_ID":"205269264","OBJECT_TYPE":"PAYLOAD","CLASSIFICATION_TYPE":"U","ECCENTRICITY":"0.00017920","EPHEMERIS_TYPE":"0","OBJECT_NAME":"STARLINK-2495","DECAY_DATE":null,"BSTAR":"0.00006934500000","SITE":"AFETR","APOAPSIS":"548.429","ARG_OF_PERICENTER":"47.4060","EPOCH":"2022-06-03T09:28:35.545440","TIME_SYSTEM":"UTC","INCLINATION":"53.0535","MEAN_ANOMALY":"312.7080","COUNTRY_CODE":"US","PERIOD":"95.592","ELEMENT_SET_NO":"999","REV_AT_EPOCH":"6133","MEAN_ELEMENT_THEORY":"SGP4","FILE":"3479332","TLE_LINE1":"1 48325U 21036BB  22154.39485585  .00000752  00000-0  69345-4 0  9990"},{"NORAD_CAT_ID":"48326","REF_FRAME":"TEME","LAUNCH_DATE":"2021-04-29","RCS_SIZE":"LARGE","OBJECT_ID":"2021-036BC","PERIAPSIS":"546.161","MEAN_MOTION_DDOT":"0.0000000000000","TLE_LINE2":"2 48326  53.0551 155.5765 0001493  68.1121 292.0026 15.06406074 60745","RA_OF_ASC_NODE":"155.5765","MEAN_MOTION":"15.06406074","SEMIMAJOR_AXIS":"6925.330","MEAN_MOTION_DOT":"0.00000423","TLE_LINE1":"1 48326U 21036BC  22154.39116196  .00000423  00000-0  47305-4 0  9997","FILE":"3479192","MEAN_ELEMENT_THEORY":"SGP4","REV_AT_EPOCH":"6074","PERIOD":"95.592","ELEMENT_SET_NO":"999","COUNTRY_CODE":"US","INCLINATION":"53.0551","MEAN_ANOMALY":"292.0026","TIME_SYSTEM":"UTC","EPOCH":"2022-06-03T09:23:16.393344","ARG_OF_PERICENTER":"68.1121","DECAY_DATE":null,"SITE":"AFETR","BSTAR":"0.00004730500000","APOAPSIS":"548.229","EPHEMERIS_TYPE":"0","ECCENTRICITY":"0.00014930","OBJECT_NAME":"STARLINK-2498","GP_ID":"205262370","OBJECT_TYPE":"PAYLOAD","CLASSIFICATION_TYPE":"U","CENTER_NAME":"EARTH"},{"MEAN_MOTION_DOT":"0.00000727","SEMIMAJOR_AXIS":"6925.306","MEAN_MOTION":"15.06413813","OBJECT_ID":"2021-036BD","PERIAPSIS":"545.865","TLE_LINE2":"2 48327  53.0546 155.5881 0001886  48.6311 311.4840 15.06413813 60748","MEAN_MOTION_DDOT":"0.0000000000000","RA_OF_ASC_NODE":"155.5881","REF_FRAME":"TEME","LAUNCH_DATE":"2021-04-29","RCS_SIZE":"LARGE","NORAD_CAT_ID":"48327","GP_ID":"205262620","OBJECT_TYPE":"PAYLOAD","CLASSIFICATION_TYPE":"U","CENTER_NAME":"EARTH","TIME_SYSTEM":"UTC","ARG_OF_PERICENTER":"48.6311","EPOCH":"2022-06-03T09:17:57.579936","APOAPSIS":"548.477","DECAY_DATE":null,"SITE":"AFETR","BSTAR":"0.00006767100000","ECCENTRICITY":"0.00018860","EPHEMERIS_TYPE":"0","OBJECT_NAME":"STARLINK-2502","PERIOD":"95.591","ELEMENT_SET_NO":"999","COUNTRY_CODE":"US","INCLINATION":"53.0546","MEAN_ANOMALY":"311.4840","FILE":"3479192","TLE_LINE1":"1 48327U 21036BD  22154.38747199  .00000727  00000-0  67671-4 0  9995","MEAN_ELEMENT_THEORY":"SGP4","REV_AT_EPOCH":"6074"}];
